      2.10          N: GNSS NAV DATA                        RINEX VERSION / TYPE
fic2rin                                 06/05/2023 00:18:03 PGM / RUN BY / DATE
                                                            END OF HEADER
24 23  6  4 22  0  0.0 -.213514547795D-03 -.134150468512D-10  .000000000000D+00
     .810000000000D+02 -.161250000000D+02  .536665211403D-08 -.166597309531D+01
    -.795349478722D-06  .139199970290D-01  .528618693352D-05  .515363792610D+04
     .792000000000D+05  .284984707832D-06 -.110249854685D+01 -.113621354103D-06
     .933573997687D+00  .262093750000D+03  .895435470276D+00 -.817105464294D-08
    -.400016662300D-09  .100000000000D+01  .226500000000D+04  .000000000000D+00
     .240000000000D+01  .000000000000D+00  .279396772385D-08  .810000000000D+02
     .720000000000D+05  .400000000000D+01
16 23  6  4 22  0  0.0 -.494675710797D-03  .363797880709D-11  .000000000000D+00
     .670000000000D+02  .101562500000D+03  .394659296287D-08  .113247129229D+01
     .539794564247D-05  .133045653347D-01  .110007822514D-04  .515361491013D+04
     .792000000000D+05 -.160187482834D-06  .120997685159D+00  .298023223877D-07
     .965500303454D+00  .172687500000D+03  .787945188623D+00 -.773746515362D-08
    -.400016662300D-09  .100000000000D+01  .226500000000D+04  .000000000000D+00
     .240000000000D+01  .000000000000D+00 -.102445483208D-07  .670000000000D+02
     .720000000000D+05  .400000000000D+01
13 23  6  4 22  0  0.0  .529565848410D-03  .511590769747D-11  .000000000000D+00
     .740000000000D+02  .662500000000D+01  .468340936851D-08 -.159085142100D+00
     .420957803726D-06  .699833012186D-02  .663846731186D-05  .515365999031D+04
     .792000000000D+05 -.186264514923D-08 -.192343247233D+01  .502914190292D-07
     .969428301403D+00  .251937500000D+03  .908351786121D+00 -.800390482333D-08
     .345014371233D-09  .100000000000D+01  .226500000000D+04  .000000000000D+00
     .240000000000D+01  .000000000000D+00 -.111758708954D-07  .740000000000D+02
     .720000000000D+05  .400000000000D+01
11 23  6  4 22  0  0.0 -.222855713218D-03 -.146656020661D-10  .000000000000D+00
     .131000000000D+03 -.109843750000D+03  .467948063344D-08 -.325400199436D+00
    -.564381480217D-05  .863405526616D-03  .592321157455D-06  .515375720215D+04
     .792000000000D+05  .130385160446D-07  .217818510565D+01  .707805156708D-07
     .965333988687D+00  .371843750000D+03 -.289413260106D+01 -.838356349478D-08
    -.166078346401D-09  .100000000000D+01  .226500000000D+04  .000000000000D+00
     .240000000000D+01  .000000000000D+00 -.884756445885D-08  .387000000000D+03
     .720000000000D+05  .400000000000D+01
30 23  6  4 22  0  0.0 -.513081904501D-03  .238742359215D-11  .000000000000D+00
     .650000000000D+02 -.152187500000D+02  .530557814148D-08 -.271702520499D+01
    -.881031155586D-06  .652558775619D-02  .620819628239D-05  .515357625198D+04
     .792000000000D+05  .558793544769D-08 -.100567081823D+01 -.689178705215D-07
     .935185470709D+00  .245562500000D+03 -.257775356057D+01 -.814998233662D-08
    -.497163566001D-09  .100000000000D+01  .226500000000D+04  .000000000000D+00
     .240000000000D+01  .000000000000D+00  .372529029846D-08  .650000000000D+02
     .720000000000D+05  .400000000000D+01
27 23  6  4 22  0  0.0  .230926088989D-04 -.773070496507D-11  .000000000000D+00
     .750000000000D+02  .124718750000D+03  .443625621645D-08  .246183741352D+00
     .654160976410D-05  .115669756196D-01  .258348882198D-05  .515366888046D+04
     .792000000000D+05  .242143869400D-07  .107605199135D+01  .242143869400D-06
     .967392067191D+00  .337031250000D+03  .739929124652D+00 -.834284751309D-08
     .318584698903D-09  .100000000000D+01  .226500000000D+04  .000000000000D+00
     .340000000000D+01  .000000000000D+00  .186264514923D-08  .750000000000D+02
     .720000000000D+05  .400000000000D+01
15 23  6  4 22  0  0.0  .458718277514D-04  .352429196937D-11  .000000000000D+00
     .800000000000D+02  .700000000000D+01  .539272462863D-08 -.738073982144D+00
     .489875674248D-06  .149192145327D-01  .822171568871D-05  .515372605896D+04
     .792000000000D+05 -.121071934700D-06 -.220248733924D+01  .208616256714D-06
     .932303703494D+00  .205437500000D+03  .120121144584D+01 -.847142429740D-08
     .475019786481D-09  .100000000000D+01  .226500000000D+04  .000000000000D+00
     .240000000000D+01  .000000000000D+00 -.107102096081D-07  .800000000000D+02
     .720000000000D+05  .400000000000D+01
20 23  6  4 22  0  0.0  .429790467024D-03 -.204636307899D-11  .000000000000D+00
     .850000000000D+02 -.147125000000D+03  .463162149705D-08 -.116154106472D+01
    -.751391053200D-05  .405933964066D-02  .928342342377D-05  .515356293297D+04
     .792000000000D+05  .596046447754D-07  .300642129205D+01 -.186264514923D-08
     .949033361083D+00  .195500000000D+03 -.287861041996D+01 -.797426073140D-08
     .105004373854D-09  .100000000000D+01  .226500000000D+04  .000000000000D+00
     .240000000000D+01  .000000000000D+00 -.838190317154D-08  .850000000000D+02
     .720000000000D+05  .400000000000D+01
26 23  6  4 22  0  0.0  .239709857851D-03 -.682121026330D-12  .000000000000D+00
     .670000000000D+02  .734687500000D+02  .465912264259D-08  .205273580759D+01
     .379793345928D-05  .791458052117D-02  .110212713480D-04  .515370594406D+04
     .792000000000D+05 -.894069671631D-07 -.353952327078D-01  .391155481339D-07
     .934261618924D+00  .153562500000D+03  .462186315321D+00 -.794890253227D-08
    -.446804325479D-09  .100000000000D+01  .226500000000D+04  .000000000000D+00
     .240000000000D+01  .000000000000D+00  .698491930962D-08  .670000000000D+02
     .720000000000D+05  .400000000000D+01
19 23  6  4 22  0  0.0  .326210167259D-03  .511590769747D-11  .000000000000D+00
     .910000000000D+02  .140375000000D+03  .428053544434D-08  .234520461071D+01
     .701844692230D-05  .944973935839D-02  .149570405483D-05  .515363293076D+04
     .792000000000D+05  .121071934700D-06  .118638589609D+01  .409781932831D-07
     .973066332896D+00  .353937500000D+03  .231235024141D+01 -.817069748520D-08
     .298583865788D-09  .100000000000D+01  .226500000000D+04  .000000000000D+00
     .240000000000D+01  .000000000000D+00 -.153668224812D-07  .910000000000D+02
     .720000000000D+05  .400000000000D+01
17 23  6  4 22  0  0.0  .717290211469D-03  .125055521494D-11  .000000000000D+00
     .880000000000D+02  .132156250000D+03  .432339437244D-08  .157461598542D+00
     .667572021484D-05  .135017440189D-01  .211969017982D-05  .515377812195D+04
     .792000000000D+05 -.184401869774D-06  .114183594002D+01 -.137835741043D-06
     .974030376892D+00  .342937500000D+03 -.140553246680D+01 -.847749597888D-08
     .370729728096D-09  .100000000000D+01  .226500000000D+04  .000000000000D+00
     .340000000000D+01  .000000000000D+00 -.111758708954D-07  .880000000000D+02
     .720000000000D+05  .400000000000D+01
25 23  6  4 22  0  0.0  .447619706392D-03  .261479726760D-11  .000000000000D+00
     .500000000000D+02  .788750000000D+02  .409338479162D-08  .276131445883D+01
     .408291816711D-05  .110740369419D-01  .114589929581D-04  .515373162842D+04
     .792000000000D+05  .113621354103D-06  .203958341626D-01 -.353902578354D-07
     .953503343847D+00  .151875000000D+03  .105047715216D+01 -.749209779023D-08
    -.300012496725D-09  .100000000000D+01  .226500000000D+04  .000000000000D+00
     .240000000000D+01  .000000000000D+00  .558793544769D-08  .500000000000D+02
     .720000000000D+05  .400000000000D+01
23 23  6  4 22  0  0.0  .301767140627D-04  .341060513165D-11  .000000000000D+00
     .166000000000D+03 -.116781250000D+03  .392266339468D-08 -.284910048767D+01
    -.607594847679D-05  .321686582174D-02  .102762132883D-04  .515366759872D+04
     .792000000000D+05 -.707805156708D-07 -.313747433585D+01 -.130385160446D-07
     .974382189672D+00  .189468750000D+03 -.309665974799D+01 -.755174313184D-08
     .120362156424D-09  .100000000000D+01  .226500000000D+04  .000000000000D+00
     .240000000000D+01  .000000000000D+00 -.838190317154D-08  .166000000000D+03
     .720000000000D+05  .400000000000D+01
14 23  6  4 22  0  0.0  .799582339823D-04  .125055521494D-10  .000000000000D+00
     .460000000000D+02  .107937500000D+03  .425553440295D-08  .291902674593D+01
     .569224357605D-05  .321062945295D-02  .118333846331D-04  .515368592072D+04
     .792000000000D+05 -.502914190292D-07  .639917145632D-01 -.633299350739D-07
     .949154322464D+00  .142781250000D+03 -.300864094986D+01 -.769960643380D-08
    -.330013746397D-09  .100000000000D+01  .226500000000D+04  .000000000000D+00
     .240000000000D+01  .000000000000D+00 -.791624188423D-08  .558000000000D+03
     .720000000000D+05  .400000000000D+01
18 23  6  4 22  0  0.0 -.294609926641D-03 -.153477230924D-10  .000000000000D+00
     .108000000000D+03 -.955312500000D+02  .442232706482D-08 -.179309930565D+01
    -.516697764397D-05  .326287059579D-02  .136531889439D-05  .515367514610D+04
     .792000000000D+05  .614672899246D-07  .214624468857D+01 -.102445483208D-06
     .973776159766D+00  .361781250000D+03  .311947660185D+01 -.827391607039D-08
    -.982183769039D-10  .100000000000D+01  .226500000000D+04  .000000000000D+00
     .240000000000D+01  .000000000000D+00 -.838190317154D-08  .876000000000D+03
     .720000000000D+05  .400000000000D+01
28 23  6  4 22  0  0.0  .821421854198D-04  .159161572810D-11  .000000000000D+00
     .173000000000D+03 -.134062500000D+02  .478698511143D-08  .213949940006D+01
    -.694766640663D-06  .685222563334D-03  .611133873463D-05  .515367838860D+04
     .792000000000D+05  .279396772385D-07 -.104891436358D+01  .242143869400D-07
     .961175211023D+00  .262031250000D+03  .170077443741D+01 -.800533345427D-08
    -.503235247482D-09  .100000000000D+01  .226500000000D+04  .000000000000D+00
     .240000000000D+01  .000000000000D+00 -.977888703346D-08  .685000000000D+03
     .720000000000D+05  .400000000000D+01
